{"type": "FeatureCollection", "features": [ {"type": "Feature", "properties": {"norad_id": 31151, "name": "FENGYUN 1C DEB", "group": "fengyun-1c-debris", "lat": -54.583826276157524, "lon": 161.7562989956627, "alt_km": 844.5573045413448, "timestamp": "2025-12-15T07:02:37.897378+00:00", "meta": {"OBJECT_NAME": "FENGYUN 1C DEB", "OBJECT_ID": "1999-025BHD", "EPOCH": "2025-12-14T11:24:56.840832", "MEAN_MOTION": 14.25834274, "ECCENTRICITY": 0.00564761, "INCLINATION": 99.1352, "RA_OF_ASC_NODE": 353.9827, "ARG_OF_PERICENTER": 20.0005, "MEAN_ANOMALY": 340.337, "EPHEMERIS_TYPE": 0, "CLASSIFICATION_TYPE": "U", "NORAD_CAT_ID": 31151, "ELEMENT_SET_NO": 999, "REV_AT_EPOCH": 95999, "BSTAR": 0.0025593668, "MEAN_MOTION_DOT": 6.148e-05, "MEAN_MOTION_DDOT": 0}, "tle": {"line1": "1 31151U 99025BHD 25348.47565788  .00006148  00000+0  25594-2 0  9993", "line2": "2 31151  99.1352 353.9827 0056476  20.0005 340.3370 14.25834274959995"}}, "geometry": {"type": "Point", "coordinates": [161.7562989956627, -54.583826276157524]}}, {"type": "Feature", "properties": {"norad_id": 31152, "name": "FENGYUN 1C DEB", "group": "fengyun-1c-debris", "lat": 51.17484799613261, "lon": -34.76709938065528, "alt_km": 683.841975842347, "timestamp": "2025-12-15T07:02:37.897388+00:00", "meta": {"OBJECT_NAME": "FENGYUN 1C DEB", "OBJECT_ID": "1999-025BHE", "EPOCH": "2025-12-14T22:34:30.095040", "MEAN_MOTION": 14.35850406, "ECCENTRICITY": 0.0130053, "INCLINATION": 98.4143, "RA_OF_ASC_NODE": 335.4873, "ARG_OF_PERICENTER": 26.8216, "MEAN_ANOMALY": 1.6052, "EPHEMERIS_TYPE": 0, "CLASSIFICATION_TYPE": "U", "NORAD_CAT_ID": 31152, "ELEMENT_SET_NO": 999, "REV_AT_EPOCH": 98080, "BSTAR": 0.00013104998, "MEAN_MOTION_DOT": 3.72e-06, "MEAN_MOTION_DDOT": 0}, "tle": {"line1": "1 31152U 99025BHE 25348.94062610  .00000372  00000+0  13105-3 0  9991", "line2": "2 31152  98.4143 335.4873 0130053  26.8216   1.6052 14.35850406980808"}}, "geometry": {"type": "Point", "coordinates": [-34.76709938065528, 51.17484799613261]}}, {"type": "Feature", "properties": {"norad_id": 31155, "name": "FENGYUN 1C DEB", "group": "fengyun-1c-debris", "lat": 66.94675613470469, "lon": 36.253595412585234, "alt_km": 839.2837959166318, "timestamp": "2025-12-15T07:02:37.897400+00:00", "meta": {"OBJECT_NAME": "FENGYUN 1C DEB", "OBJECT_ID": "1999-025BHH", "EPOCH": "2025-12-14T15:22:38.883648", "MEAN_MOTION": 14.08333591, "ECCENTRICITY": 0.00887577, "INCLINATION": 99.0419, "RA_OF_ASC_NODE": 57.5723, "ARG_OF_PERICENTER": 357.4774, "MEAN_ANOMALY": 2.5936, "EPHEMERIS_TYPE": 0, "CLASSIFICATION_TYPE": "U", "NORAD_CAT_ID": 31155, "ELEMENT_SET_NO": 999, "REV_AT_EPOCH": 95614, "BSTAR": 0.0012433812, "MEAN_MOTION_DOT": 2.16e-05, "MEAN_MOTION_DDOT": 0}, "tle": {"line1": "1 31155U 99025BHH 25348.64072782  .00002160  00000+0  12434-2 0  9992", "line2": "2 31155  99.0419  57.5723 0088757 357.4774   2.5936 14.08333591956147"}}, "geometry": {"type": "Point", "coordinates": [36.253595412585234, 66.94675613470469]}}, {"type": "Feature", "properties": {"norad_id": 31157, "name": "FENGYUN 1C DEB", "group": "fengyun-1c-debris", "lat": 40.72434193843476, "lon": 160.0898834486878, "alt_km": 885.6493251401107, "timestamp": "2025-12-15T07:02:37.897411+00:00", "meta": {"OBJECT_NAME": "FENGYUN 1C DEB", "OBJECT_ID": "1999-025BHK", "EPOCH": "2025-12-09T17:02:08.473920", "MEAN_MOTION": 14.22555615, "ECCENTRICITY": 0.01003907, "INCLINATION": 98.4789, "RA_OF_ASC_NODE": 327.3382, "ARG_OF_PERICENTER": 335.3802, "MEAN_ANOMALY": 24.2601, "EPHEMERIS_TYPE": 0, "CLASSIFICATION_TYPE": "U", "NORAD_CAT_ID": 31157, "ELEMENT_SET_NO": 999, "REV_AT_EPOCH": 96940, "BSTAR": 0.00055432669, "MEAN_MOTION_DOT": 1.261e-05, "MEAN_MOTION_DDOT": 0}, "tle": {"line1": "1 31157U 99025BHK 25343.70982030  .00001261  00000+0  55433-3 0  9990", "line2": "2 31157  98.4789 327.3382 0100390 335.3802  24.2601 14.22555615969408"}}, "geometry": {"type": "Point", "coordinates": [160.0898834486878, 40.72434193843476]}}, {"type": "Feature", "properties": {"norad_id": 31158, "name": "FENGYUN 1C DEB", "group": "fengyun-1c-debris", "lat": 46.48773800147245, "lon": 58.61234805334711, "alt_km": 744.6743537211532, "timestamp": "2025-12-15T07:02:37.897423+00:00", "meta": {"OBJECT_NAME": "FENGYUN 1C DEB", "OBJECT_ID": "1999-025BHL", "EPOCH": "2025-12-09T11:45:37.421280", "MEAN_MOTION": 14.33182755, "ECCENTRICITY": 0.00475394, "INCLINATION": 98.7798, "RA_OF_ASC_NODE": 62.0987, "ARG_OF_PERICENTER": 44.6824, "MEAN_ANOMALY": 315.8174, "EPHEMERIS_TYPE": 0, "CLASSIFICATION_TYPE": "U", "NORAD_CAT_ID": 31158, "ELEMENT_SET_NO": 999, "REV_AT_EPOCH": 64433, "BSTAR": 0.0025161115, "MEAN_MOTION_DOT": 6.96e-05, "MEAN_MOTION_DDOT": 0}, "tle": {"line1": "1 31158U 99025BHL 25343.49001645  .00006960  00000+0  25161-2 0  9996", "line2": "2 31158  98.7798  62.0987 0047539  44.6824 315.8174 14.33182755644334"}}, "geometry": {"type": "Point", "coordinates": [58.61234805334711, 46.48773800147245]}}, {"type": "Feature", "properties": {"norad_id": 31159, "name": "FENGYUN 1C DEB", "group": "fengyun-1c-debris", "lat": 74.01680877726882, "lon": -79.52306587636555, "alt_km": 417.89841974909814, "timestamp": "2025-12-15T07:02:37.897434+00:00", "meta": {"OBJECT_NAME": "FENGYUN 1C DEB", "OBJECT_ID": "1999-025BHM", "EPOCH": "2025-12-14T15:06:45.315360", "MEAN_MOTION": 15.38614001, "ECCENTRICITY": 0.01109726, "INCLINATION": 97.7983, "RA_OF_ASC_NODE": 308.3572, "ARG_OF_PERICENTER": 7.071, "MEAN_ANOMALY": 353.2067, "EPHEMERIS_TYPE": 0, "CLASSIFICATION_TYPE": "U", "NORAD_CAT_ID": 31159, "ELEMENT_SET_NO": 999, "REV_AT_EPOCH": 99582, "BSTAR": 0.0014705964, "MEAN_MOTION_DOT": 0.00069845, "MEAN_MOTION_DDOT": 0}, "tle": {"line1": "1 31159U 99025BHM 25348.62969115  .00069845  00000+0  14706-2 0  9996", "line2": "2 31159  97.7983 308.3572 0110972   7.0710 353.2067 15.38614001995825"}}, "geometry": {"type": "Point", "coordinates": [-79.52306587636555, 74.01680877726882]}}, {"type": "Feature", "properties": {"norad_id": 31160, "name": "FENGYUN 1C DEB", "group": "fengyun-1c-debris", "lat": -21.00191731944314, "lon": -137.96795796836685, "alt_km": 872.3642388276103, "timestamp": "2025-12-15T07:02:37.897446+00:00", "meta": {"OBJECT_NAME": "FENGYUN 1C DEB", "OBJECT_ID": "1999-025BHN", "EPOCH": "2025-12-14T21:30:06.618816", "MEAN_MOTION": 13.99593656, "ECCENTRICITY": 0.00569592, "INCLINATION": 99.0856, "RA_OF_ASC_NODE": 45.1595, "ARG_OF_PERICENTER": 249.9816, "MEAN_ANOMALY": 109.521, "EPHEMERIS_TYPE": 0, "CLASSIFICATION_TYPE": "U", "NORAD_CAT_ID": 31160, "ELEMENT_SET_NO": 999, "REV_AT_EPOCH": 69629, "BSTAR": 4.2388717e-05, "MEAN_MOTION_DOT": 1.8e-07, "MEAN_MOTION_DDOT": 0}, "tle": {"line1": "1 31160U 99025BHN 25348.89590994  .00000018  00000+0  42389-4 0  9999", "line2": "2 31160  99.0856  45.1595 0056959 249.9816 109.5210 13.99593656696298"}}, "geometry": {"type": "Point", "coordinates": [-137.96795796836685, -21.00191731944314]}}, {"type": "Feature", "properties": {"norad_id": 31161, "name": "FENGYUN 1C DEB", "group": "fengyun-1c-debris", "lat": -25.036491851418297, "lon": 14.92819401233404, "alt_km": 818.5102912122165, "timestamp": "2025-12-15T07:02:37.897456+00:00", "meta": {"OBJECT_NAME": "FENGYUN 1C DEB", "OBJECT_ID": "1999-025BHP", "EPOCH": "2025-12-14T07:18:24.260544", "MEAN_MOTION": 14.09252193, "ECCENTRICITY": 0.00682608, "INCLINATION": 98.7487, "RA_OF_ASC_NODE": 9.8431, "ARG_OF_PERICENTER": 345.6937, "MEAN_ANOMALY": 14.2299, "EPHEMERIS_TYPE": 0, "CLASSIFICATION_TYPE": "U", "NORAD_CAT_ID": 31161, "ELEMENT_SET_NO": 999, "REV_AT_EPOCH": 96124, "BSTAR": 0.00038153032, "MEAN_MOTION_DOT": 6.35e-06, "MEAN_MOTION_DDOT": 0}, "tle": {"line1": "1 31161U 99025BHP 25348.30444746  .00000635  00000+0  38153-3 0  9997", "line2": "2 31161  98.7487   9.8431 0068260 345.6937  14.2299 14.09252193961246"}}, "geometry": {"type": "Point", "coordinates": [14.92819401233404, -25.036491851418297]}}, {"type": "Feature", "properties": {"norad_id": 31165, "name": "FENGYUN 1C DEB", "group": "fengyun-1c-debris", "lat": 52.142885808522394, "lon": -119.07135210291302, "alt_km": 660.9301839973123, "timestamp": "2025-12-15T07:02:37.897467+00:00", "meta": {"OBJECT_NAME": "FENGYUN 1C DEB", "OBJECT_ID": "1999-025BHT", "EPOCH": "2025-12-13T15:59:37.075776", "MEAN_MOTION": 14.7107417, "ECCENTRICITY": 0.00693984, "INCLINATION": 98.8868, "RA_OF_ASC_NODE": 47.5419, "ARG_OF_PERICENTER": 232.0816, "MEAN_ANOMALY": 283.6909, "EPHEMERIS_TYPE": 0, "CLASSIFICATION_TYPE": "U", "NORAD_CAT_ID": 31165, "ELEMENT_SET_NO": 999, "REV_AT_EPOCH": 98768, "BSTAR": 0.0015028718, "MEAN_MOTION_DOT": 9.537e-05, "MEAN_MOTION_DDOT": 0}, "tle": {"line1": "1 31165U 99025BHT 25347.66640134  .00009537  00000+0  15029-2 0  9994", "line2": "2 31165  98.8868  47.5419 0069398 232.0816 283.6909 14.71074170987689"}}, "geometry": {"type": "Point", "coordinates": [-119.07135210291302, 52.142885808522394]}}, {"type": "Feature", "properties": {"norad_id": 31168, "name": "FENGYUN 1C DEB", "group": "fengyun-1c-debris", "lat": -2.037842166825227, "lon": 121.07588930482912, "alt_km": 631.1656303366844, "timestamp": "2025-12-15T07:02:37.897479+00:00", "meta": {"OBJECT_NAME": "FENGYUN 1C DEB", "OBJECT_ID": "1999-025BHW", "EPOCH": "2025-12-14T19:35:50.761536", "MEAN_MOTION": 14.67367516, "ECCENTRICITY": 0.01087944, "INCLINATION": 98.8903, "RA_OF_ASC_NODE": 120.2396, "ARG_OF_PERICENTER": 57.2571, "MEAN_ANOMALY": 303.9061, "EPHEMERIS_TYPE": 0, "CLASSIFICATION_TYPE": "U", "NORAD_CAT_ID": 31168, "ELEMENT_SET_NO": 999, "REV_AT_EPOCH": 99151, "BSTAR": 0.00056322094, "MEAN_MOTION_DOT": 3.417e-05, "MEAN_MOTION_DDOT": 0}, "tle": {"line1": "1 31168U 99025BHW 25348.81655974  .00003417  00000+0  56322-3 0  9996", "line2": "2 31168  98.8903 120.2396 0108794  57.2571 303.9061 14.67367516991510"}}, "geometry": {"type": "Point", "coordinates": [121.07588930482912, -2.037842166825227]}}]}